ATLAS CENTAUR R/B       
1 06155U 72065B   25362.06761737  .00001568  00000+0  21787-3 0  9999
2 06155  35.0025   5.4088 0033351 128.4998 231.8700 14.77450221830662
SL-8 R/B                
1 08459U 75112B   25363.38627557  .00000422  00000+0  14738-3 0  9997
2 08459  74.0600 148.2387 0016697 257.9702 101.9581 14.38157146621766
SL-3 R/B                
1 10114U 77057B   25363.48601757  .00017146  00000+0  38551-3 0  9993
2 10114  97.5690 167.4714 0007584 167.8704 192.2727 15.43374038657491
SEASAT 1                
1 10967U 78064A   25363.35382541  .00000642  00000+0  21799-3 0  9990
2 10967 108.0142 337.8923 0001247 257.8757 102.2249 14.46081001496342
SL-14 R/B               
1 11267U 79011B   25363.42279708  .00001058  00000+0  10234-3 0  9999
2 11267  82.5239 163.2214 0014739 294.7001  65.2684 14.91793155518307
SL-8 R/B                
1 11574U 79089B   25362.92834537  .00000359  00000+0  11661-3 0  9994
2 11574  74.0671 222.0175 0014827  49.8245 310.4207 14.42294223425908
SL-14 R/B               
1 11672U 80005B   25363.52396782  .00000900  00000+0  88755-4 0  9996
2 11672  82.5139  13.7793 0016824  41.9913 318.2593 14.90813355466034
SL-8 R/B                
1 12139U 81003B   25363.40074860  .00028180  00000+0  74519-3 0  9993
2 12139  82.9359 354.8727 0276782  63.0872 299.8350 15.07599965304074
SL-3 R/B                
1 12465U 81046B   25363.52552948  .00016204  00000+0  40316-3 0  9995
2 12465  81.2324  13.8512 0017986 262.5367  97.3831 15.39981101427622
SL-3 R/B                
1 12904U 81103B   25363.44305618  .00009247  00000+0  42169-3 0  9995
2 12904  81.1593 295.7896 0013243 154.5681 205.6204 15.20442511962555
SL-3 R/B                
1 13068U 82013B   25363.48306552  .00007057  00000+0  31247-3 0  9992
2 13068  81.1743 243.0102 0023957  57.4418 302.9122 15.21241302393679
SL-3 R/B                
1 13154U 82039B   25363.40926613  .00004562  00000+0  27943-3 0  9990
2 13154  81.1701 296.9182 0029477 195.6048 164.4272 15.09628985371036
