CCSDS_OMM_VERS = 2.0
CREATION_DATE  = 
ORIGINATOR     = 

OBJECT_NAME    = ATLAS CENTAUR R/B
OBJECT_ID      = 1972-065B
CENTER_NAME    = EARTH
REF_FRAME      = TEME
TIME_SYSTEM    = UTC
MEAN_ELEMENT_THEORY = SGP/SGP4

EPOCH          = 2025-12-28T01:37:22.140768
MEAN_MOTION    = 14.77450221
ECCENTRICITY   = .00333515
INCLINATION    = 35.0025
RA_OF_ASC_NODE = 5.4088
ARG_OF_PERICENTER = 128.4998
MEAN_ANOMALY   = 231.8700

EPHEMERIS_TYPE = 0
CLASSIFICATION_TYPE = U
NORAD_CAT_ID   = 6155
ELEMENT_SET_NO = 999
REV_AT_EPOCH   = 83066
BSTAR          = .2178713E-3
MEAN_MOTION_DOT = .1568E-4
MEAN_MOTION_DDOT = 0

CCSDS_OMM_VERS = 2.0
CREATION_DATE  = 
ORIGINATOR     = 

OBJECT_NAME    = SL-8 R/B
OBJECT_ID      = 1975-112B
CENTER_NAME    = EARTH
REF_FRAME      = TEME
TIME_SYSTEM    = UTC
MEAN_ELEMENT_THEORY = SGP/SGP4

EPOCH          = 2025-12-29T09:16:14.209248
MEAN_MOTION    = 14.38157146
ECCENTRICITY   = .0016697
INCLINATION    = 74.0600
RA_OF_ASC_NODE = 148.2387
ARG_OF_PERICENTER = 257.9702
MEAN_ANOMALY   = 101.9581

EPHEMERIS_TYPE = 0
CLASSIFICATION_TYPE = U
NORAD_CAT_ID   = 8459
ELEMENT_SET_NO = 999
REV_AT_EPOCH   = 62176
BSTAR          = .14738E-3
MEAN_MOTION_DOT = .422E-5
MEAN_MOTION_DDOT = 0

CCSDS_OMM_VERS = 2.0
CREATION_DATE  = 
ORIGINATOR     = 

OBJECT_NAME    = SL-3 R/B
OBJECT_ID      = 1977-057B
CENTER_NAME    = EARTH
REF_FRAME      = TEME
TIME_SYSTEM    = UTC
MEAN_ELEMENT_THEORY = SGP/SGP4

EPOCH          = 2025-12-29T11:39:51.918048
MEAN_MOTION    = 15.43374038
ECCENTRICITY   = .0007584
INCLINATION    = 97.5690
RA_OF_ASC_NODE = 167.4714
ARG_OF_PERICENTER = 167.8704
MEAN_ANOMALY   = 192.2727

EPHEMERIS_TYPE = 0
CLASSIFICATION_TYPE = U
NORAD_CAT_ID   = 10114
ELEMENT_SET_NO = 999
REV_AT_EPOCH   = 65749
BSTAR          = .38551E-3
MEAN_MOTION_DOT = .17146E-3
MEAN_MOTION_DDOT = 0

CCSDS_OMM_VERS = 2.0
CREATION_DATE  = 
ORIGINATOR     = 

OBJECT_NAME    = SEASAT 1
OBJECT_ID      = 1978-064A
CENTER_NAME    = EARTH
REF_FRAME      = TEME
TIME_SYSTEM    = UTC
MEAN_ELEMENT_THEORY = SGP/SGP4

EPOCH          = 2025-12-29T08:29:30.515424
MEAN_MOTION    = 14.46081001
ECCENTRICITY   = .0001247
INCLINATION    = 108.0142
RA_OF_ASC_NODE = 337.8923
ARG_OF_PERICENTER = 257.8757
MEAN_ANOMALY   = 102.2249

EPHEMERIS_TYPE = 0
CLASSIFICATION_TYPE = U
NORAD_CAT_ID   = 10967
ELEMENT_SET_NO = 999
REV_AT_EPOCH   = 49634
BSTAR          = .21799E-3
MEAN_MOTION_DOT = .642E-5
MEAN_MOTION_DDOT = 0

CCSDS_OMM_VERS = 2.0
CREATION_DATE  = 
ORIGINATOR     = 

OBJECT_NAME    = SL-14 R/B
OBJECT_ID      = 1979-011B
CENTER_NAME    = EARTH
REF_FRAME      = TEME
TIME_SYSTEM    = UTC
MEAN_ELEMENT_THEORY = SGP/SGP4

EPOCH          = 2025-12-29T10:08:49.667712
MEAN_MOTION    = 14.91793155
ECCENTRICITY   = .0014739
INCLINATION    = 82.5239
RA_OF_ASC_NODE = 163.2214
ARG_OF_PERICENTER = 294.7001
MEAN_ANOMALY   = 65.2684

EPHEMERIS_TYPE = 0
CLASSIFICATION_TYPE = U
NORAD_CAT_ID   = 11267
ELEMENT_SET_NO = 999
REV_AT_EPOCH   = 51830
BSTAR          = .10234E-3
MEAN_MOTION_DOT = .1058E-4
MEAN_MOTION_DDOT = 0

CCSDS_OMM_VERS = 2.0
CREATION_DATE  = 
ORIGINATOR     = 

OBJECT_NAME    = SL-8 R/B
OBJECT_ID      = 1979-089B
CENTER_NAME    = EARTH
REF_FRAME      = TEME
TIME_SYSTEM    = UTC
MEAN_ELEMENT_THEORY = SGP/SGP4

EPOCH          = 2025-12-28T22:16:49.039968
MEAN_MOTION    = 14.42294223
ECCENTRICITY   = .00148278
INCLINATION    = 74.0671
RA_OF_ASC_NODE = 222.0175
ARG_OF_PERICENTER = 49.8245
MEAN_ANOMALY   = 310.4207

EPHEMERIS_TYPE = 0
CLASSIFICATION_TYPE = U
NORAD_CAT_ID   = 11574
ELEMENT_SET_NO = 999
REV_AT_EPOCH   = 42590
BSTAR          = .11660569E-3
MEAN_MOTION_DOT = .359E-5
MEAN_MOTION_DDOT = 0

CCSDS_OMM_VERS = 2.0
CREATION_DATE  = 
ORIGINATOR     = 

OBJECT_NAME    = SL-14 R/B
OBJECT_ID      = 1980-005B
CENTER_NAME    = EARTH
REF_FRAME      = TEME
TIME_SYSTEM    = UTC
MEAN_ELEMENT_THEORY = SGP/SGP4

EPOCH          = 2025-12-29T12:34:30.819648
MEAN_MOTION    = 14.90813355
ECCENTRICITY   = .0016824
INCLINATION    = 82.5139
RA_OF_ASC_NODE = 13.7793
ARG_OF_PERICENTER = 41.9913
MEAN_ANOMALY   = 318.2593

EPHEMERIS_TYPE = 0
CLASSIFICATION_TYPE = U
NORAD_CAT_ID   = 11672
ELEMENT_SET_NO = 999
REV_AT_EPOCH   = 46603
BSTAR          = .88755E-4
MEAN_MOTION_DOT = .9E-5
MEAN_MOTION_DDOT = 0

CCSDS_OMM_VERS = 2.0
CREATION_DATE  = 
ORIGINATOR     = 

OBJECT_NAME    = SL-8 R/B
OBJECT_ID      = 1981-003B
CENTER_NAME    = EARTH
REF_FRAME      = TEME
TIME_SYSTEM    = UTC
MEAN_ELEMENT_THEORY = SGP/SGP4

EPOCH          = 2025-12-29T09:37:04.679040
MEAN_MOTION    = 15.07599965
ECCENTRICITY   = .0276782
INCLINATION    = 82.9359
RA_OF_ASC_NODE = 354.8727
ARG_OF_PERICENTER = 63.0872
MEAN_ANOMALY   = 299.8350

EPHEMERIS_TYPE = 0
CLASSIFICATION_TYPE = U
NORAD_CAT_ID   = 12139
ELEMENT_SET_NO = 999
REV_AT_EPOCH   = 30407
BSTAR          = .74519E-3
MEAN_MOTION_DOT = .2818E-3
MEAN_MOTION_DDOT = 0

CCSDS_OMM_VERS = 2.0
CREATION_DATE  = 
ORIGINATOR     = 

OBJECT_NAME    = SL-3 R/B
OBJECT_ID      = 1981-046B
CENTER_NAME    = EARTH
REF_FRAME      = TEME
TIME_SYSTEM    = UTC
MEAN_ELEMENT_THEORY = SGP/SGP4

EPOCH          = 2025-12-29T12:36:45.747072
MEAN_MOTION    = 15.39981101
ECCENTRICITY   = .0017986
INCLINATION    = 81.2324
RA_OF_ASC_NODE = 13.8512
ARG_OF_PERICENTER = 262.5367
MEAN_ANOMALY   = 97.3831

EPHEMERIS_TYPE = 0
CLASSIFICATION_TYPE = U
NORAD_CAT_ID   = 12465
ELEMENT_SET_NO = 999
REV_AT_EPOCH   = 42762
BSTAR          = .40316E-3
MEAN_MOTION_DOT = .16204E-3
MEAN_MOTION_DDOT = 0

CCSDS_OMM_VERS = 2.0
CREATION_DATE  = 
ORIGINATOR     = 

OBJECT_NAME    = SL-3 R/B
OBJECT_ID      = 1981-103B
CENTER_NAME    = EARTH
REF_FRAME      = TEME
TIME_SYSTEM    = UTC
MEAN_ELEMENT_THEORY = SGP/SGP4

EPOCH          = 2025-12-29T10:38:00.053952
MEAN_MOTION    = 15.20442511
ECCENTRICITY   = .0013243
INCLINATION    = 81.1593
RA_OF_ASC_NODE = 295.7896
ARG_OF_PERICENTER = 154.5681
MEAN_ANOMALY   = 205.6204

EPHEMERIS_TYPE = 0
CLASSIFICATION_TYPE = U
NORAD_CAT_ID   = 12904
ELEMENT_SET_NO = 999
REV_AT_EPOCH   = 96255
BSTAR          = .42169E-3
MEAN_MOTION_DOT = .9247E-4
MEAN_MOTION_DDOT = 0

CCSDS_OMM_VERS = 2.0
CREATION_DATE  = 
ORIGINATOR     = 

OBJECT_NAME    = SL-3 R/B
OBJECT_ID      = 1982-013B
CENTER_NAME    = EARTH
REF_FRAME      = TEME
TIME_SYSTEM    = UTC
MEAN_ELEMENT_THEORY = SGP/SGP4

EPOCH          = 2025-12-29T11:35:36.860928
MEAN_MOTION    = 15.21241302
ECCENTRICITY   = .0023957
INCLINATION    = 81.1743
RA_OF_ASC_NODE = 243.0102
ARG_OF_PERICENTER = 57.4418
MEAN_ANOMALY   = 302.9122

EPHEMERIS_TYPE = 0
CLASSIFICATION_TYPE = U
NORAD_CAT_ID   = 13068
ELEMENT_SET_NO = 999
REV_AT_EPOCH   = 39367
BSTAR          = .31247E-3
MEAN_MOTION_DOT = .7057E-4
MEAN_MOTION_DDOT = 0

CCSDS_OMM_VERS = 2.0
CREATION_DATE  = 
ORIGINATOR     = 

OBJECT_NAME    = SL-3 R/B
OBJECT_ID      = 1982-039B
CENTER_NAME    = EARTH
REF_FRAME      = TEME
TIME_SYSTEM    = UTC
MEAN_ELEMENT_THEORY = SGP/SGP4

EPOCH          = 2025-12-29T09:49:20.593632
MEAN_MOTION    = 15.09628985
ECCENTRICITY   = .0029477
INCLINATION    = 81.1701
RA_OF_ASC_NODE = 296.9182
ARG_OF_PERICENTER = 195.6048
MEAN_ANOMALY   = 164.4272

EPHEMERIS_TYPE = 0
CLASSIFICATION_TYPE = U
NORAD_CAT_ID   = 13154
ELEMENT_SET_NO = 999
REV_AT_EPOCH   = 37103
BSTAR          = .27943E-3
MEAN_MOTION_DOT = .4562E-4
MEAN_MOTION_DDOT = 0

